[{ "name": "Afghanistan", "cca2": "AF", "alt": "The flag of the Islamic Emirate of Afghanistan has a white field with Arabic inscriptions — the Shahada — in black across its center.", "idd": "+93" }, { "name": "Albania", "cca2": "AL", "alt": "The flag of Albania features a silhouetted double-headed black eagle at the center of a red field.", "idd": "+355" }, { "name": "Algeria", "cca2": "DZ", "alt": "The flag of Algeria features two equal vertical bands of green and white. A five-pointed red star within a fly-side facing red crescent is centered over the two-color boundary.", "idd": "+213" }, { "name": "American Samoa", "cca2": "AS", "alt": "", "idd": "+1684" }, { "name": "Andorra", "cca2": "AD", "alt": "The flag of Andorra features three equal vertical bands of blue, yellow and red, with the coat of arms of Andorra centered in the yellow band.", "idd": "+376" }, { "name": "Angola", "cca2": "AO", "alt": "The flag of Angola features two equal horizontal bands of red and black, with a yellow emblem at its centre. This emblem consists of a five-pointed star within the hoist-side facing half of a cogwheel that is crossed on its lower end by a machete.", "idd": "+244" }, { "name": "Anguilla", "cca2": "AI", "alt": "", "idd": "+1264" }, { "name": "Antigua and Barbuda", "cca2": "AG", "alt": "The flag of Antigua and Barbuda has a red field with an inverted isosceles triangle based on the top edge and spanning the height of the field. This triangle has three horizontal bands of black, light blue and white, with the light blue band half the height of the two other bands. The top half of a golden-yellow sun is situated in the lower two-third of the black band to depict a rising sun.", "idd": "+1268" }, { "name": "Argentina", "cca2": "AR", "alt": "The flag of Argentina features three equal horizontal bands of light blue, white and light blue. A brown-edged golden sun is centered in the white band.", "idd": "+54" }, { "name": "Armenia", "cca2": "AM", "alt": "The flag of Armenia is composed of three equal horizontal bands of red, blue and orange.", "idd": "+374" }, { "name": "Aruba", "cca2": "AW", "alt": "", "idd": "+297" }, { "name": "Australia", "cca2": "AU", "alt": "The flag of Australia has a dark blue field. It features the flag of the United Kingdom — the Union Jack — in the canton, beneath which is a large white seven-pointed star. A representation of the Southern Cross constellation, made up of one small five-pointed and four larger seven-pointed white stars, is situated on the fly side of the field.", "idd": "+61" }, { "name": "Austria", "cca2": "AT", "alt": "The flag of Austria is composed of three equal horizontal bands of red, white and red.", "idd": "+43" }, { "name": "Azerbaijan", "cca2": "AZ", "alt": "The flag of Azerbaijan features three equal horizontal bands of blue, red and green, with a white fly-side facing crescent and eight-pointed star centered in the red band.", "idd": "+994" }, { "name": "Bahamas", "cca2": "BS", "alt": "The flag of the Bahamas is composed of three equal horizontal bands of aquamarine, yellow and aquamarine, with a black equilateral triangle superimposed on the hoist side of the field. This triangle has its base on the hoist end and spans about one-third the width of the field.", "idd": "+1242" }, { "name": "Bahrain", "cca2": "BH", "alt": "The flag of Bahrain has a red field. On the hoist side, it features a white vertical band that spans about one-third the width of the field and is separated from the rest of the field by five adjoining fly-side pointing white isosceles triangles that serve as a serrated line.", "idd": "+973" }, { "name": "Bangladesh", "cca2": "BD", "alt": "The flag of Bangladesh has a dark green field bearing a large red circle that is offset slightly towards the hoist side of center.", "idd": "+880" }, { "name": "Barbados", "cca2": "BB", "alt": "The flag of Barbados is composed of three equal vertical bands of ultramarine, gold and ultramarine. The head of a black trident is centered in the gold band.", "idd": "+1246" }, { "name": "Belarus", "cca2": "BY", "alt": "The flag of Belarus features a vertical band, with a white and red ornamental pattern, spanning about one-fifth the width of the field on the hoist side. Adjoining the vertical band are two horizontal bands of red and green, with the red band twice the height of the green band.", "idd": "+375" }, { "name": "Belgium", "cca2": "BE", "alt": "The flag of Belgium is composed of three equal vertical bands of black, yellow and red.", "idd": "+32" }, { "name": "Belize", "cca2": "BZ", "alt": "The flag of Belize has a royal blue field with a thin red horizontal band at the top and bottom of the field and the national coat of arms in the center.", "idd": "+501" }, { "name": "Benin", "cca2": "BJ", "alt": "The flag of Benin features a green vertical band on its hoist side that takes up about two-fifth the width of the field and two equal horizontal bands of yellow and red adjoining the vertical band.", "idd": "+229" }, { "name": "Bermuda", "cca2": "BM", "alt": "", "idd": "+1441" }, { "name": "Bhutan", "cca2": "BT", "alt": "The flag of Bhutan is divided diagonally, from the lower hoist-side corner to the upper fly-side corner, into an upper yellow and a lower orange triangle. A fly-side facing white dragon holding four jewels in its claws is situated along the boundary of the two triangles.", "idd": "+975" }, { "name": "Bolivia", "cca2": "BO", "alt": "The flag of Bolivia is composed of three equal horizontal bands of red, yellow and green, with the national coat of arms centered in the yellow band.", "idd": "+591" }, { "name": "Bosnia and Herzegovina", "cca2": "BA", "alt": "The flag of Bosnia and Herzegovina has a blue field, at the center of which is a large yellow hoist-side facing right-angled triangle that is based on the top edge and spans the height of the field. Adjacent to the hypotenuse of this triangle are nine adjoining five-pointed white stars with the top and bottom stars cut in half by the edges of the field.", "idd": "+387" }, { "name": "Botswana", "cca2": "BW", "alt": "The flag of Botswana has a light blue field with a white-edged black horizontal band across its center.", "idd": "+267" }, { "name": "Bouvet Island", "cca2": "BV", "alt": "", "idd": "+47" }, { "name": "Brazil", "cca2": "BR", "alt": "The flag of Brazil has a green field with a large yellow rhombus in the center. Within the rhombus is a dark blue globe with twenty-seven small five-pointed white stars depicting a starry sky and a thin white convex horizontal band inscribed with the national motto 'Ordem e Progresso' across its center.", "idd": "+55" }, { "name": "British Indian Ocean Territory", "cca2": "IO", "alt": "", "idd": "+246" }, { "name": "British Virgin Islands", "cca2": "VG", "alt": "", "idd": "+1284" }, { "name": "Brunei", "cca2": "BN", "alt": "The flag of Brunei has a yellow field with two adjoining diagonal bands of white and black that extend from the upper hoist side of the field to the lower fly side. The red emblem of Brunei is centered on the field.", "idd": "+673" }, { "name": "Bulgaria", "cca2": "BG", "alt": "The flag of Bulgaria is composed of three equal horizontal bands of white, green and red.", "idd": "+359" }, { "name": "Burkina Faso", "cca2": "BF", "alt": "The flag of Burkina Faso features two equal horizontal bands of red and green, with a yellow five-pointed star in the center.", "idd": "+226" }, { "name": "Burundi", "cca2": "BI", "alt": "The flag of Burundi is divided by a white diagonal cross into four alternating triangular areas of red at the top and bottom, and green on the hoist and fly sides. A white circle, with three green-edged red six-pointed stars arranged to form a triangle, is superimposed at the center of the cross.", "idd": "+257" }, { "name": "Cambodia", "cca2": "KH", "alt": "The flag of Cambodia features three horizontal bands of blue, red and blue, with a white depiction of the temple complex, Angkor Wat centered in the red band.", "idd": "+855" }, { "name": "Cameroon", "cca2": "CM", "alt": "The flag of Cameroon is composed of three equal vertical bands of green, red and yellow, with a yellow five-pointed star in the center.", "idd": "+237" }, { "name": "Canada", "cca2": "CA", "alt": "The flag of Canada is composed of a red vertical band on the hoist and fly sides and a central white square that is twice the width of the vertical bands. A large eleven-pointed red maple leaf is centered in the white square.", "idd": "+1" }, { "name": "Cape Verde", "cca2": "CV", "alt": "The flag of Cape Verde is composed of five horizontal bands of blue, white, red, white and blue in the ratio of 6:1:1:1:3. A ring of ten five-pointed yellow stars is centered at three-eighth of the height from the bottom edge and three-eighth of the width from the hoist end of the field.", "idd": "+238" }, { "name": "Caribbean Netherlands", "cca2": "BQ", "alt": "", "idd": "+599" }, { "name": "Cayman Islands", "cca2": "KY", "alt": "", "idd": "+1345" }, { "name": "Central African Republic", "cca2": "CF", "alt": "The flag of Central African Republic is composed of four equal horizontal bands of blue, white, green and yellow intersected at the center by a vertical red band of equal size as the horizontal bands. A yellow five-pointed star is situated on the hoist side of the blue band.", "idd": "+236" }, { "name": "Chad", "cca2": "TD", "alt": "The flag of Chad is composed of three equal vertical bands of blue, gold and red.", "idd": "+235" }, { "name": "Chile", "cca2": "CL", "alt": "The flag of Chile is composed of two equal horizontal bands of white and red, with a blue square of the same height as the white band superimposed in the canton. A white five-pointed star is centered in the blue square.", "idd": "+56" }, { "name": "China", "cca2": "CN", "alt": "The flag of China has a red field. In the canton are five yellow five-pointed stars — a large star and four smaller stars arranged in a vertical arc on the fly side of the large star.", "idd": "+86" }, { "name": "Christmas Island", "cca2": "CX", "alt": "", "idd": "+61" }, { "name": "Cocos (Keeling) Islands", "cca2": "CC", "alt": "", "idd": "+61" }, { "name": "Colombia", "cca2": "CO", "alt": "The flag of Colombia is composed of three horizontal bands of yellow, blue and red, with the yellow band twice the height of the other two bands.", "idd": "+57" }, { "name": "Comoros", "cca2": "KM", "alt": "The flag of Comoros is composed of four equal horizontal bands of yellow, white, red and blue, with a green isosceles triangle superimposed on the hoist side of the field. This triangle has its base on the hoist end, spans about two-fifth the width of the field and bears a fly-side facing white crescent and four five-pointed white stars arranged in a vertical line along the opening of the crescent.", "idd": "+269" }, { "name": "Cook Islands", "cca2": "CK", "alt": "", "idd": "+682" }, { "name": "Costa Rica", "cca2": "CR", "alt": "The flag of Costa Rica is composed of five horizontal bands of blue, white, red, white and blue. The central red band is twice the height of the other four bands.", "idd": "+506" }, { "name": "Croatia", "cca2": "HR", "alt": "The flag of Croatia is composed of three equal horizontal bands of red, white and blue, with coat of arms of Croatia superimposed in the center.", "idd": "+385" }, { "name": "Cuba", "cca2": "CU", "alt": "The flag of Cuba is composed of five equal horizontal bands of blue alternating with white and a red equilateral triangle superimposed on the hoist side of the field. The triangle has its base on the hoist end, spans about two-fifth the width of the field and bears a white five-pointed star at its center.", "idd": "+53" }, { "name": "Curaçao", "cca2": "CW", "alt": "", "idd": "+599" }, { "name": "Cyprus", "cca2": "CY", "alt": "The flag of Cyprus has a white field, at the center of which is a copper-colored silhouette of the Island of Cyprus above two green olive branches crossed at the stem.", "idd": "+357" }, { "name": "Czechia", "cca2": "CZ", "alt": "The flag of Czechia is composed of two equal horizontal bands of white and red, with a blue isosceles triangle superimposed on the hoist side of the field. The triangle has its base on the hoist end and spans about two-fifth the width of the field.", "idd": "+420" }, { "name": "DR Congo", "cca2": "CD", "alt": "The flag of the Democratic Republic of the Congo has a sky-blue field with a yellow-edged red diagonal band that extends from the lower hoist-side corner to the upper fly-side corner of the field. A large five-pointed yellow star is situated above the diagonal band on the upper hoist side of the field.", "idd": "+243" }, { "name": "Denmark", "cca2": "DK", "alt": "The flag of Denmark has a red field with a large white cross that extend to the edges of the field. The vertical part of this cross is offset towards the hoist side.", "idd": "+45" }, { "name": "Djibouti", "cca2": "DJ", "alt": "The flag of Djibouti is composed of two equal horizontal bands of light blue and light green, with a white isosceles triangle superimposed on the hoist side of the field. The triangle has its base on the hoist end, spans about two-fifth the width of the field and bears a red five-pointed star at its center.", "idd": "+253" }, { "name": "Dominica", "cca2": "DM", "alt": "The flag of Dominica has a green field with a large centered tricolor cross. The vertical and horizontal parts of the cross each comprise three bands of yellow, black and white. A red circle, bearing a hoist-side facing purple Sisserou parrot standing on a twig and encircled by ten five-pointed yellow-edged green stars, is superimposed at the center of the cross.", "idd": "+1767" }, { "name": "Dominican Republic", "cca2": "DO", "alt": "The flag of the Dominican Republic is divided into four rectangles by a centered white cross that extends to the edges of the field and bears the national coat of arms in its center. The upper hoist-side and lower fly-side rectangles are blue and the lower hoist-side and upper fly-side rectangles are red.", "idd": "+1" }, { "name": "Ecuador", "cca2": "EC", "alt": "The flag of Ecuador is composed of the horizontal bands of yellow, blue and red, with the yellow band twice the height of the other two bands. The Ecuadorian coat of arms is superimposed in the center of the field.", "idd": "+593" }, { "name": "Egypt", "cca2": "EG", "alt": "The flag of Egypt is composed of three equal horizontal bands of red, white and black, with Egypt's national emblem — a hoist-side facing gold eagle of Saladin — centered in the white band.", "idd": "+20" }, { "name": "El Salvador", "cca2": "SV", "alt": "The flag of El Salvador is composed of three equal horizontal bands of cobalt blue, white and cobalt blue, with the national coat of arms centered in the white band.", "idd": "+503" }, { "name": "Equatorial Guinea", "cca2": "GQ", "alt": "The flag of Equatorial Guinea is composed of three equal horizontal bands of green, white and red with the national coat of arms centered in the white band and an isosceles triangle superimposed on the hoist side of the field. The triangle is light blue, has its base on the hoist end and spans about one-fifth the width of the field.", "idd": "+240" }, { "name": "Eritrea", "cca2": "ER", "alt": "The flag of Eritrea comprises three triangles — a large red isosceles triangle with its base spanning the hoist end and its apex at the midpoint on the fly end, and a green and blue right-angled triangle above and beneath the red triangle. On the hoist side of the red triangle is a golden vertical olive branch encircled by a golden olive wreath.", "idd": "+291" }, { "name": "Estonia", "cca2": "EE", "alt": "The flag of Estonia is composed of three equal horizontal bands of blue, black and white.", "idd": "+372" }, { "name": "Eswatini", "cca2": "SZ", "alt": "The flag of Eswatini is composed of three horizontal bands — a large central yellow-edged red band, and a light blue band above and beneath the red band. The red band is three times the height of the blue bands and bears a centered emblem made up of a large black and white Nguni shield covering two spears and a staff decorated with feather tassels, all placed horizontally.", "idd": "+268" }, { "name": "Ethiopia", "cca2": "ET", "alt": "The flag of Ethiopia is composed of three equal horizontal bands of green, yellow and red, with the national emblem superimposed at the center of the field. The national emblem comprises a light blue circle bearing a golden-yellow pentagram with single yellow rays emanating from the angles between the points of the pentagram.", "idd": "+251" }, { "name": "Falkland Islands", "cca2": "FK", "alt": "", "idd": "+500" }, { "name": "Faroe Islands", "cca2": "FO", "alt": "", "idd": "+298" }, { "name": "Fiji", "cca2": "FJ", "alt": "The flag of Fiji has a light blue field. It features the flag of the United Kingdom — the Union Jack — in the canton and the shield of the national coat of arms centered in the fly half.", "idd": "+679" }, { "name": "Finland", "cca2": "FI", "alt": "The flag of Finland has a white field with a large blue cross that extend to the edges of the field. The vertical part of this cross is offset towards the hoist side.", "idd": "+358" }, { "name": "France", "cca2": "FR", "alt": "The flag of France is composed of three equal vertical bands of blue, white and red.", "idd": "+33" }, { "name": "French Guiana", "cca2": "GF", "alt": "", "idd": "+594" }, { "name": "French Polynesia", "cca2": "PF", "alt": "", "idd": "+689" }, { "name": "French Southern and Antarctic Lands", "cca2": "TF", "alt": "", "idd": "+262" }, { "name": "Gabon", "cca2": "GA", "alt": "The flag of Gabon is composed of three equal horizontal bands of green, yellow and blue.", "idd": "+241" }, { "name": "Gambia", "cca2": "GM", "alt": "The flag of Gambia is composed of three equal horizontal bands of red, blue with white top and bottom edges, and green.", "idd": "+220" }, { "name": "Georgia", "cca2": "GE", "alt": "The flag of Georgia has a white field with a large centered red cross that extends to the edges and divides the field into four quarters. A small red Bolnur-Katskhuri cross is centered in each quarter.", "idd": "+995" }, { "name": "Germany", "cca2": "DE", "alt": "The flag of Germany is composed of three equal horizontal bands of black, red and gold.", "idd": "+49" }, { "name": "Ghana", "cca2": "GH", "alt": "The flag of Ghana is composed of three equal horizontal bands of red, gold and green, with a five-pointed black star centered in the gold band.", "idd": "+233" }, { "name": "Gibraltar", "cca2": "GI", "alt": "", "idd": "+350" }, { "name": "Greece", "cca2": "GR", "alt": "The flag of Greece is composed of nine equal horizontal bands of blue alternating with white. A blue square bearing a white cross is superimposed in the canton.", "idd": "+30" }, { "name": "Greenland", "cca2": "GL", "alt": "", "idd": "+299" }, { "name": "Grenada", "cca2": "GD", "alt": "The flag of Grenada features a large central rectangular area surrounded by a red border, with three five-pointed yellow stars centered on the top and bottom borders. The central rectangle is divided diagonally into four alternating triangular areas of yellow at the top and bottom and green on the hoist and fly sides, and a five-pointed yellow star on a red circle is superimposed at its center. A symbolic nutmeg pod is situated on the green hoist-side triangle.", "idd": "+1473" }, { "name": "Guadeloupe", "cca2": "GP", "alt": "", "idd": "+590" }, { "name": "Guam", "cca2": "GU", "alt": "", "idd": "+1671" }, { "name": "Guatemala", "cca2": "GT", "alt": "The flag of Guatemala is composed of three equal vertical bands of light blue, white and light blue, with the national coat of arms centered in the white band.", "idd": "+502" }, { "name": "Guernsey", "cca2": "GG", "alt": "", "idd": "+44" }, { "name": "Guinea", "cca2": "GN", "alt": "The flag of Guinea is composed of three equal vertical bands of red, yellow and green.", "idd": "+224" }, { "name": "Guinea-Bissau", "cca2": "GW", "alt": "The flag of Guinea-Bissau features a red vertical band on its hoist side that takes up about two-fifth the width of the field, and two equal horizontal bands of yellow and green adjoining the vertical band. A five-pointed black star is centered in the vertical band.", "idd": "+245" }, { "name": "Guyana", "cca2": "GY", "alt": "The flag of Guyana has a green field with two isosceles triangles which share a common base on the hoist end. The smaller black-edged red triangle spanning half the width of the field is superimposed on the larger white-edged yellow triangle which spans the full width of the field.", "idd": "+592" }, { "name": "Haiti", "cca2": "HT", "alt": "The flag of Haiti is composed of two equal horizontal bands of blue and red. A white square bearing the national coat of arms is superimposed at the center of the field.", "idd": "+509" }, { "name": "Honduras", "cca2": "HN", "alt": "The flag of Honduras is composed of three equal horizontal bands of turquoise, white and turquoise, with five small five-pointed turquoise stars arranged in a quincuncial pattern at the center of the white band.", "idd": "+504" }, { "name": "Hong Kong", "cca2": "HK", "alt": "", "idd": "+852" }, { "name": "Hungary", "cca2": "HU", "alt": "The flag of Hungary is composed of three equal horizontal bands of red, white and green.", "idd": "+36" }, { "name": "Iceland", "cca2": "IS", "alt": "The flag of Iceland has a blue field with a large white-edged red cross that extends to the edges of the field. The vertical part of this cross is offset towards the hoist side.", "idd": "+354" }, { "name": "India", "cca2": "IN", "alt": "The flag of India is composed of three equal horizontal bands of saffron, white and green. A navy blue wheel with twenty-four spokes — the Ashoka Chakra — is centered in the white band.", "idd": "+91" }, { "name": "Indonesia", "cca2": "ID", "alt": "The flag of Indonesia is composed of two equal horizontal bands of red and white.", "idd": "+62" }, { "name": "Iran", "cca2": "IR", "alt": "The flag of Iran is composed of three equal horizontal bands of green, white and red. A red emblem of Iran is centered in the white band and Arabic inscriptions in white span the bottom edge of the green band and the top edge of the red band.", "idd": "+98" }, { "name": "Iraq", "cca2": "IQ", "alt": "The flag of Iraq is composed of three equal horizontal bands of red, white and black. In the central white band are Arabic inscriptions in green.", "idd": "+964" }, { "name": "Ireland", "cca2": "IE", "alt": "The flag of Ireland is composed of three equal vertical bands of green, white and orange.", "idd": "+353" }, { "name": "Isle of Man", "cca2": "IM", "alt": "", "idd": "+44" }, { "name": "Israel", "cca2": "IL", "alt": "The flag of Israel has a white field with a blue hexagram — the Magen David — centered between two equal horizontal blue bands situated near the top and bottom edges of the field.", "idd": "+972" }, { "name": "Italy", "cca2": "IT", "alt": "The flag of Italy is composed of three equal vertical bands of green, white and red.", "idd": "+39" }, { "name": "Ivory Coast", "cca2": "CI", "alt": "The flag of Ivory Coast is composed of three equal vertical bands of orange, white and green.", "idd": "+225" }, { "name": "Jamaica", "cca2": "JM", "alt": "The flag of Jamaica is divided by a gold diagonal cross into four alternating triangular areas of green at the top and bottom, and black on the hoist and fly sides", "idd": "+1" }, { "name": "Japan", "cca2": "JP", "alt": "The flag of Japan features a crimson-red circle at the center of a white field.", "idd": "+81" }, { "name": "Jersey", "cca2": "JE", "alt": "", "idd": "+44" }, { "name": "Jordan", "cca2": "JO", "alt": "The flag of Jordan is composed of three equal horizontal bands of black, white and green, with a red isosceles triangle superimposed on the hoist side of the field. This triangle has its base on the hoist end, spans about half the width of the field and bears a small seven-pointed white star at its center.", "idd": "+962" }, { "name": "Kazakhstan", "cca2": "KZ", "alt": "The flag of Kazakhstan has a turquoise field, at the center of which is a gold sun with thirty-two rays above a soaring golden steppe eagle. A thin vertical band displays a national ornamental pattern — koshkar-muiz — in gold near the hoist end.", "idd": "+7" }, { "name": "Kenya", "cca2": "KE", "alt": "The flag of Kenya is composed of three equal horizontal bands of black, red with white top and bottom edges, and green. An emblem comprising a red, black and white Maasai shield covering two crossed white spears is superimposed at the center of the field.", "idd": "+254" }, { "name": "Kiribati", "cca2": "KI", "alt": "The flag of Kiribati is divided into two halves. While the upper half has a red field, at the center of which is a yellow frigate bird flying over the top half of a rising yellow sun with seventeen visible rays, the lower half is composed of six horizontal wavy bands of white alternating with blue to depict the ocean.", "idd": "+686" }, { "name": "Kosovo", "cca2": "XK", "alt": "", "idd": "+383" }, { "name": "Kuwait", "cca2": "KW", "alt": "The flag of Kuwait is composed of three equal horizontal bands of green, white and red, with a black trapezium superimposed on the hoist side of the field. This trapezium has its base on the hoist end and spans about one-fourth the width of the field.", "idd": "+965" }, { "name": "Kyrgyzstan", "cca2": "KG", "alt": "The flag of Kyrgyzstan features a yellow sun with forty rays at the center of a red field. At the center of the sun is a stylized depiction of a tunduk.", "idd": "+996" }, { "name": "Laos", "cca2": "LA", "alt": "The flag of Laos is composed of three horizontal bands of red, blue and red. The blue band is twice the height of the red bands and bears a white circle at its center.", "idd": "+856" }, { "name": "Latvia", "cca2": "LV", "alt": "The flag of Latvia has a carmine-red field with a thin white horizontal band across the middle of the field.", "idd": "+371" }, { "name": "Lebanon", "cca2": "LB", "alt": "The flag of Lebanon is composed of three horizontal bands of red, white and red. The white band is twice the height of the red bands and bears a green Lebanese Cedar tree at its center.", "idd": "+961" }, { "name": "Lesotho", "cca2": "LS", "alt": "The flag of Lesotho is composed of three horizontal bands of blue, white and green in the ratio of 3:4:3. A black mokorotlo — a Basotho hat — is centered in the white band.", "idd": "+266" }, { "name": "Liberia", "cca2": "LR", "alt": "The flag of Liberia is composed of eleven equal horizontal bands of red alternating with white. A blue square bearing a five-pointed white star is superimposed in the canton.", "idd": "+231" }, { "name": "Libya", "cca2": "LY", "alt": "The flag of Libya is composed of three horizontal bands of red, black and green, with the black band twice the height of the other two bands. At the center of the black band is a fly-side facing white crescent and a five-pointed white star placed just outside the crescent opening.", "idd": "+218" }, { "name": "Liechtenstein", "cca2": "LI", "alt": "The flag of Liechtenstein is composed of two equal horizontal bands of blue and red, with a golden-yellow crown on the hoist side of the blue band.", "idd": "+423" }, { "name": "Lithuania", "cca2": "LT", "alt": "The flag of Lithuania is composed of three equal horizontal bands of yellow, green and red.", "idd": "+370" }, { "name": "Luxembourg", "cca2": "LU", "alt": "The flag of Luxembourg is composed of three equal horizontal bands of red, white and light blue.", "idd": "+352" }, { "name": "Macau", "cca2": "MO", "alt": "", "idd": "+853" }, { "name": "Madagascar", "cca2": "MG", "alt": "The flag of Madagascar features a white vertical band on the hoist side that takes up about one-third the width of the field, and two equal horizontal bands of red and green adjoining the vertical band.", "idd": "+261" }, { "name": "Malawi", "cca2": "MW", "alt": "The flag of Malawi is composed of three equal horizontal bands of black, red and green. The top half of a red sun with thirty-one visible rays is centered in the black band.", "idd": "+265" }, { "name": "Malaysia", "cca2": "MY", "alt": "The flag of Malaysia is composed of fourteen equal horizontal bands of red alternating with white. A blue rectangle, bearing a fly-side facing yellow crescent and a fourteen-pointed yellow star placed just outside the crescent opening, is superimposed in the canton.", "idd": "+60" }, { "name": "Maldives", "cca2": "MV", "alt": "The flag of Maldives has a red field, at the center of which is a large green rectangle bearing a fly-side facing white crescent.", "idd": "+960" }, { "name": "Mali", "cca2": "ML", "alt": "The flag of Mali is composed of three equal vertical bands of green, yellow and red.", "idd": "+223" }, { "name": "Malta", "cca2": "MT", "alt": "The flag of Malta is composed of two equal vertical bands of white and red. A representation of the George cross edged in red is situated on the upper hoist-side corner of the white band.", "idd": "+356" }, { "name": "Marshall Islands", "cca2": "MH", "alt": "The flag of Marshall Islands has a blue field with two broadening adjacent diagonal bands of orange and white that extend from the lower hoist-side corner to the upper fly-side corner of the field. A large white star with twenty-four rays — four large rays at the cardinal points and twenty smaller rays — is situated in the upper hoist-side corner above the diagonal bands.", "idd": "+692" }, { "name": "Martinique", "cca2": "MQ", "alt": "", "idd": "+596" }, { "name": "Mauritania", "cca2": "MR", "alt": "The flag of Mauritania has a green field with a thin red horizontal band at the top and bottom of the field. At the center of the field is a five-pointed yellow star above an upward facing yellow crescent.", "idd": "+222" }, { "name": "Mauritius", "cca2": "MU", "alt": "The flag of Mauritius is composed of four equal horizontal bands of red, blue, yellow and green.", "idd": "+230" }, { "name": "Mayotte", "cca2": "YT", "alt": "", "idd": "+262" }, { "name": "Mexico", "cca2": "MX", "alt": "The flag of Mexico is composed of three equal vertical bands of green, white and red, with the national coat of arms centered in the white band.", "idd": "+52" }, { "name": "Micronesia", "cca2": "FM", "alt": "The flag of Micronesia has a light blue field, at the center of which are four five-pointed white stars arranged in the shape of a diamond.", "idd": "+691" }, { "name": "Moldova", "cca2": "MD", "alt": "The flag of Moldova is composed of three equal vertical bands of blue, yellow and red, with the national coat of arms centered in the yellow band.", "idd": "+373" }, { "name": "Monaco", "cca2": "MC", "alt": "The flag of Monaco is composed of two equal horizontal bands of red and white.", "idd": "+377" }, { "name": "Mongolia", "cca2": "MN", "alt": "The flag of Mongolia is composed of three equal vertical bands of red, blue and red, with the national emblem — the Soyombo — in gold centered in the hoist-side red band.", "idd": "+976" }, { "name": "Montenegro", "cca2": "ME", "alt": "The flag of Montenegro features a large red central rectangular area surrounded by a golden-yellow border. The coat of arms of Montenegro is centered in the red rectangle.", "idd": "+382" }, { "name": "Montserrat", "cca2": "MS", "alt": "", "idd": "+1664" }, { "name": "Morocco", "cca2": "MA", "alt": "The flag of Morocco features a green pentagram — a five-pointed linear star — centered on a red field.", "idd": "+212" }, { "name": "Mozambique", "cca2": "MZ", "alt": "The flag of Mozambique is composed of three equal horizontal bands of teal, black with white top and bottom edges, and yellow. A red isosceles triangle spanning about two-fifth the width of the field is superimposed on the hoist side with its base on the hoist end. This triangle bears a crossed rifle and hoe in black superimposed on an open white book which is superimposed on a five-pointed yellow star.", "idd": "+258" }, { "name": "Myanmar", "cca2": "MM", "alt": "The flag of Myanmar is composed of three equal horizontal bands of yellow, green and red, with a large five-pointed white star superimposed at the center of the field.", "idd": "+95" }, { "name": "Namibia", "cca2": "NA", "alt": "The flag of Namibia features a white-edged red diagonal band that extends from the lower hoist-side corner to the upper fly-side corner of the field. Above and beneath this band are a blue and green triangle respectively. A gold sun with twelve triangular rays is situated on the hoist side of the upper triangle.", "idd": "+264" }, { "name": "Nauru", "cca2": "NR", "alt": "The flag of Nauru has a dark blue field with a thin yellow horizontal band across the center and a large white twelve-pointed star beneath the horizontal band on the hoist side of the field.", "idd": "+674" }, { "name": "Nepal", "cca2": "NP", "alt": "The flag of Nepal is the world's only non-quadrilateral flag of a sovereign country. It takes the shape of two adjoining right-angled triangles and has a crimson red field with deep blue edges. Within the smaller upper triangle is an emblem of the upper half of a white sun resting on an upward facing white crescent. The lower triangle bears a white sun with twelve rays.", "idd": "+977" }, { "name": "Netherlands", "cca2": "NL", "alt": "The flag of the Netherlands is composed of three equal horizontal bands of red, white and blue.", "idd": "+31" }, { "name": "New Caledonia", "cca2": "NC", "alt": "", "idd": "+687" }, { "name": "New Zealand", "cca2": "NZ", "alt": "The flag of New Zealand has a dark blue field with the flag of the United Kingdom — the Union Jack — in the canton and a representation of the Southern Cross constellation, made up of four five-pointed white-edged red stars, on the fly side of the field.", "idd": "+64" }, { "name": "Nicaragua", "cca2": "NI", "alt": "The flag of Nicaragua is composed of three equal horizontal bands of blue, white and blue, with the national coat of arms centered in the white band.", "idd": "+505" }, { "name": "Niger", "cca2": "NE", "alt": "The flag of Niger features three equal horizontal bands of orange, white and green, with an orange circle centered in the white band.", "idd": "+227" }, { "name": "Nigeria", "cca2": "NG", "alt": "The flag of Nigeria is composed of three equal vertical bands of green, white and green.", "idd": "+234" }, { "name": "Niue", "cca2": "NU", "alt": "", "idd": "+683" }, { "name": "Norfolk Island", "cca2": "NF", "alt": "", "idd": "+672" }, { "name": "North Korea", "cca2": "KP", "alt": "The flag of North Korea is composed of three horizontal bands — a large central white-edged red band, and a blue band above and beneath the red band. On the hoist side of the red band is a red five-pointed star within a white circle.", "idd": "+850" }, { "name": "North Macedonia", "cca2": "MK", "alt": "The flag of North Macedonia has a red field, at the center of which is a golden-yellow sun with eight broadening rays that extend to the edges of the field.", "idd": "+389" }, { "name": "Northern Mariana Islands", "cca2": "MP", "alt": "", "idd": "+1670" }, { "name": "Norway", "cca2": "NO", "alt": "The flag of Norway has a red field with a large white-edged navy blue cross that extends to the edges of the field. The vertical part of this cross is offset towards the hoist side.", "idd": "+47" }, { "name": "Oman", "cca2": "OM", "alt": "The flag of Oman features a red vertical band on the hoist side that takes up about one-fourth the width of the field, and three equal horizontal bands of white, red and green adjoining the vertical band. At the top of the vertical band is the white emblem of Oman.", "idd": "+968" }, { "name": "Pakistan", "cca2": "PK", "alt": "The flag of Pakistan is composed of a white vertical band on its hoist side that takes up about one-fourth the width of the field and a dark green rectangular area that spans the rest of the field. A white fly-side facing crescent and five-pointed star are centered in the dark green area.", "idd": "+92" }, { "name": "Palau", "cca2": "PW", "alt": "The flag of Palau has a light blue field with a large golden-yellow circle that is offset slightly towards the hoist side of center.", "idd": "+680" }, { "name": "Palestine", "cca2": "PS", "alt": "", "idd": "+970" }, { "name": "Panama", "cca2": "PA", "alt": "The flag of Panama is composed of four equal rectangular areas — a white rectangular area with a blue five-pointed star at its center, a red rectangular area, a white rectangular area with a red five-pointed star at its center, and a blue rectangular area — in the upper hoist side, upper fly side, lower fly side and lower hoist side respectively.", "idd": "+507" }, { "name": "Papua New Guinea", "cca2": "PG", "alt": "The flag of Papua New Guinea is divided diagonally, from the upper hoist-side corner to the lower fly-side corner, into a lower black and an upper red triangle. On the hoist side of the lower black triangle is a representation of the Southern Cross constellation made up of one small and four larger five-pointed white stars. A golden Raggiana bird-of-paradise is situated on the fly side of the upper red triangle.", "idd": "+675" }, { "name": "Paraguay", "cca2": "PY", "alt": "The flag of Paraguay features three equal horizontal bands of red, white and blue, with an emblem centered in the white band. On the obverse side of the flag depicted, this emblem is the national coat of arms.", "idd": "+595" }, { "name": "Peru", "cca2": "PE", "alt": "The flag of Peru is composed of three equal vertical bands of red, white and red, with the national emblem centered in the white band.", "idd": "+51" }, { "name": "Philippines", "cca2": "PH", "alt": "The flag of Philippines is composed of two equal horizontal bands of blue and red, with a white equilateral triangle superimposed on the hoist side of the field. This triangle has its base on the hoist end, spans about two-fifth the width of the field and bears a central golden-yellow sun with eight rays and a five-pointed golden-yellow star at each vertex.", "idd": "+63" }, { "name": "Pitcairn Islands", "cca2": "PN", "alt": "", "idd": "+64" }, { "name": "Poland", "cca2": "PL", "alt": "The flag of Poland is composed of two equal horizontal bands of white and red.", "idd": "+48" }, { "name": "Portugal", "cca2": "PT", "alt": "The flag of Portugal is composed of two vertical bands of green and red in the ratio of 2:3, with the coat of arms of Portugal centered over the two-color boundary.", "idd": "+351" }, { "name": "Puerto Rico", "cca2": "PR", "alt": "", "idd": "+1" }, { "name": "Qatar", "cca2": "QA", "alt": "The flag of Qatar has a maroon field, on the hoist side of which is a white vertical band that spans about one-third the width of the field and is separated from the rest of the field by nine adjoining fly-side pointing white isosceles triangles that serve as a serrated line.", "idd": "+974" }, { "name": "Republic of the Congo", "cca2": "CG", "alt": "The flag of the Republic of the Congo features a yellow diagonal band that extends from the lower hoist-side corner to the upper fly-side corner of the field. Above and beneath this band are a green and red triangle respectively.", "idd": "+242" }, { "name": "Romania", "cca2": "RO", "alt": "The flag of Romania is composed of three equal vertical bands of navy blue, yellow and red.", "idd": "+40" }, { "name": "Russia", "cca2": "RU", "alt": "The flag of Russia is composed of three equal horizontal bands of white, blue and red.", "idd": "+7" }, { "name": "Rwanda", "cca2": "RW", "alt": "The flag of Rwanda is composed of three horizontal bands of light blue, yellow and green. The light blue band is twice the height of the other two bands and bears a yellow sun with twenty-four rays on its fly side.", "idd": "+250" }, { "name": "Réunion", "cca2": "RE", "alt": "", "idd": "+262" }, { "name": "Saint Barthélemy", "cca2": "BL", "alt": "", "idd": "+590" }, { "name": "Saint Helena, Ascension and Tristan da Cunha", "cca2": "SH", "alt": "", "idd": "+2" }, { "name": "Saint Kitts and Nevis", "cca2": "KN", "alt": "The flag of Saint Kitts and Nevis features two large five-pointed white stars within a yellow-edged black diagonal band that extends from the lower hoist-side corner to the upper fly-side corner of the field. Above and beneath this band are a green and red triangle respectively.", "idd": "+1869" }, { "name": "Saint Lucia", "cca2": "LC", "alt": "The flag of Saint Lucia has a light blue field, at the center of which are two triangles which share a common base — a small golden-yellow isosceles triangle superimposed on a large white-edged black isosceles triangle.", "idd": "+1758" }, { "name": "Saint Martin", "cca2": "MF", "alt": "", "idd": "+590" }, { "name": "Saint Pierre and Miquelon", "cca2": "PM", "alt": "", "idd": "+508" }, { "name": "Saint Vincent and the Grenadines", "cca2": "VC", "alt": "The flag of Saint Vincent and the Grenadines is composed of three vertical bands of blue, gold and green. The gold band is twice as wide as the other two bands and bears three green diamonds arranged to form the letter V at its center.", "idd": "+1784" }, { "name": "Samoa", "cca2": "WS", "alt": "The flag of Samoa has a red field. A blue rectangle, bearing a representation of the Southern Cross made up of five large and one smaller five-pointed white stars, is superimposed in the canton.", "idd": "+685" }, { "name": "San Marino", "cca2": "SM", "alt": "The flag of San Marino is composed of two equal horizontal bands of white and light blue, with the national coat of arms superimposed in the center.", "idd": "+378" }, { "name": "Saudi Arabia", "cca2": "SA", "alt": "The flag of Saudi Arabia has a green field, at the center of which is an Arabic inscription — the Shahada — in white above a white horizontal sabre with its tip pointed to the hoist side of the field.", "idd": "+966" }, { "name": "Senegal", "cca2": "SN", "alt": "The flag of Senegal is composed of three equal vertical bands of green, golden-yellow and red, with a five-pointed green star centered in the golden-yellow band.", "idd": "+221" }, { "name": "Serbia", "cca2": "RS", "alt": "The flag of Serbia is composed of three equal horizontal bands of red, blue and white. The coat of arms of Serbia is superimposed at the center of the field slightly towards the hoist side.", "idd": "+381" }, { "name": "Seychelles", "cca2": "SC", "alt": "The flag of Seychelles is composed of five broadening oblique bands of blue, yellow, red, white and green, which extend from the hoist side of the bottom edge to the top and fly edges of the field.", "idd": "+248" }, { "name": "Sierra Leone", "cca2": "SL", "alt": "The flag of Sierra Leone is composed of three equal horizontal bands of green, white and blue.", "idd": "+232" }, { "name": "Singapore", "cca2": "SG", "alt": "The flag of Singapore is composed of two equal horizontal bands of red and white. On the hoist side of the red band is a fly-side facing white crescent which partially encloses five small five-pointed white stars arranged in the shape of a pentagon.", "idd": "+65" }, { "name": "Sint Maarten", "cca2": "SX", "alt": "", "idd": "+1721" }, { "name": "Slovakia", "cca2": "SK", "alt": "The flag of Slovakia is composed of three equal horizontal bands of white, blue and red. The coat of arms of Slovakia is superimposed at the center of the field slightly towards the hoist side.", "idd": "+421" }, { "name": "Slovenia", "cca2": "SI", "alt": "The flag of Slovenia is composed of three equal horizontal bands of white, blue and red. The national coat of arms is situated in the upper hoist side of the field centered on the boundary between the white and blue bands.", "idd": "+386" }, { "name": "Solomon Islands", "cca2": "SB", "alt": "The flag of Solomon Islands features a thin yellow diagonal band that extends from the lower hoist-side corner to the upper fly-side corner of the field. Above and beneath this band are a blue and green triangle respectively. Five white five-pointed stars arranged in an X shape are situated on the hoist side of the upper blue triangle.", "idd": "+677" }, { "name": "Somalia", "cca2": "SO", "alt": "The flag of Somalia features a large five-pointed white star centered on a light blue field.", "idd": "+252" }, { "name": "South Africa", "cca2": "ZA", "alt": "The flag of South Africa is composed of two equal horizontal bands of red and blue, with a yellow-edged black isosceles triangle superimposed on the hoist side of the field. This triangle has its base centered on the hoist end, spans about two-fifth the width and two-third the height of the field, and is enclosed on its sides by the arms of a white-edged green horizontally oriented Y-shaped band which extends along the boundary of the red and blue bands to the fly end of the field.", "idd": "+27" }, { "name": "South Georgia", "cca2": "GS", "alt": "", "idd": "+500" }, { "name": "South Korea", "cca2": "KR", "alt": "The flag of South Korea has a white field, at the center of which is a red and blue Taegeuk circle surrounded by four black trigrams, one in each corner.", "idd": "+82" }, { "name": "South Sudan", "cca2": "SS", "alt": "The flag of South Sudan is composed of three equal horizontal bands of black, red with white top and bottom edges, and green. A blue equilateral triangle which spans about two-fifth the width of the field is superimposed on the hoist side with its base on the hoist end of the field. At the center of this triangle is a five-pointed yellow star.", "idd": "+211" }, { "name": "Spain", "cca2": "ES", "alt": "The flag of Spain is composed of three horizontal bands of red, yellow and red, with the yellow band twice the height of the red bands. In the yellow band is the national coat of arms offset slightly towards the hoist side of center.", "idd": "+34" }, { "name": "Sri Lanka", "cca2": "LK", "alt": "The flag of Sri Lanka features two large adjacent but separate rectangular areas, centered on a golden-yellow field. The smaller hoist-side rectangle is divided into two equal vertical bands of teal and orange, and the larger fly-side rectangle is maroon with a centered golden-yellow lion holding a Kastane sword in its right fore-paw and four golden-yellow Bo leaves, one in each corner.", "idd": "+94" }, { "name": "Sudan", "cca2": "SD", "alt": "The flag of Sudan is composed of three equal horizontal bands of red, white and black, with a green isosceles triangle superimposed on the hoist side. The green triangle spans about two-fifth the width of the field with its base on the hoist end.", "idd": "+249" }, { "name": "Suriname", "cca2": "SR", "alt": "The flag of Suriname is composed of five horizontal bands of green, white, red, white and green in the ratio of 2:1:4:1:2. A large five-pointed yellow star is centered in the red band.", "idd": "+597" }, { "name": "Svalbard and Jan Mayen", "cca2": "SJ", "alt": "", "idd": "+4779" }, { "name": "Sweden", "cca2": "SE", "alt": "The flag of Sweden has a blue field with a large golden-yellow cross that extend to the edges of the field. The vertical part of this cross is offset towards the hoist side.", "idd": "+46" }, { "name": "Switzerland", "cca2": "CH", "alt": "The flag of Switzerland is square shaped. It features a white Swiss cross centered on a red field.", "idd": "+41" }, { "name": "Syria", "cca2": "SY", "alt": "The flag of Syria is composed of three equal horizontal bands of red, white and black. At the center of the white band are two small five-pointed green stars arranged in a horizontal line.", "idd": "+963" }, { "name": "São Tomé and Príncipe", "cca2": "ST", "alt": "The flag of South Sudan is composed of three equal horizontal bands of black, red with white top and bottom edges, and green. A blue equilateral triangle which spans about two-fifth the width of the field is superimposed on the hoist side with its base on the hoist end of the field. At the center of this triangle is a five-pointed yellow star.", "idd": "+239" }, { "name": "Taiwan", "cca2": "TW", "alt": "", "idd": "+886" }, { "name": "Tajikistan", "cca2": "TJ", "alt": "The flag of Tajikistan is composed of three horizontal bands of red, white and green in the ratio of 2:3:2. A golden-yellow crown surmounted by an arc of seven five-pointed golden-yellow stars is centered in the white band.", "idd": "+992" }, { "name": "Tanzania", "cca2": "TZ", "alt": "The flag of Tanzania features a yellow-edged black diagonal band that extends from the lower hoist-side corner to the upper fly-side corner of the field. Above and beneath this band are a green and light blue triangle respectively.", "idd": "+255" }, { "name": "Thailand", "cca2": "TH", "alt": "The flag of Thailand is composed of five horizontal bands of red, white, blue, white and red, with the central blue band twice the height of the other four bands.", "idd": "+66" }, { "name": "Timor-Leste", "cca2": "TL", "alt": "The flag of Timor-Leste has a red field with two isosceles triangles which share a common base on the hoist end. The smaller black triangle, which bears a five-pointed white star at its center and spans one-third the width of the field, is superimposed on the larger yellow triangle that extends to the center of the field.", "idd": "+670" }, { "name": "Togo", "cca2": "TG", "alt": "The flag of Togo is composed of five equal horizontal bands of green alternating with yellow. A red square bearing a five-pointed white star is superimposed in the canton.", "idd": "+228" }, { "name": "Tokelau", "cca2": "TK", "alt": "", "idd": "+690" }, { "name": "Tonga", "cca2": "TO", "alt": "The flag of Tonga has a red field. A white rectangle bearing a red Greek cross is superimposed in the canton.", "idd": "+676" }, { "name": "Trinidad and Tobago", "cca2": "TT", "alt": "The flag of Trinidad and Tobago has a red field with a white-edged black diagonal band that extends from the upper hoist-side corner to the lower fly-side corner of the field.", "idd": "+1868" }, { "name": "Tunisia", "cca2": "TN", "alt": "The flag of Tunisia has a red field. A white circle bearing a five-pointed red star within a fly-side facing red crescent is situated at the center of the field.", "idd": "+216" }, { "name": "Turkey", "cca2": "TR", "alt": "The flag of Turkey has a red field bearing a large fly-side facing white crescent and a smaller five-pointed white star placed just outside the crescent opening. The white crescent and star are offset slightly towards the hoist side of center.", "idd": "+90" }, { "name": "Turkmenistan", "cca2": "TM", "alt": "The flag of Turkmenistan has a green field. It features a red vertical band, bearing five carpet guls stacked above two crossed olive branches, near the hoist end of the field. Just to the fly side of the vertical band near the top edge of the field is a hoist-side facing white crescent and five small five-pointed white stars placed just outside the crescent opening.", "idd": "+993" }, { "name": "Turks and Caicos Islands", "cca2": "TC", "alt": "", "idd": "+1649" }, { "name": "Tuvalu", "cca2": "TV", "alt": "The flag of Tuvalu has a light blue field with the flag of the United Kingdom — the Union Jack — in the canton. A representation of the country's nine Islands using nine five-pointed yellow stars is situated in the fly half of the field.", "idd": "+688" }, { "name": "Uganda", "cca2": "UG", "alt": "The flag of Uganda is composed of six equal horizontal bands of black, yellow, red, black, yellow and red. A white circle bearing a hoist-side facing grey red-crested crane is superimposed in the center of the field.", "idd": "+256" }, { "name": "Ukraine", "cca2": "UA", "alt": "The flag of Ukraine is composed of two equal horizontal bands of blue and yellow.", "idd": "+380" }, { "name": "United Arab Emirates", "cca2": "AE", "alt": "The flag of United Arab Emirates features a red vertical band on its hoist side that takes up about one-fourth the width of the field and three equal horizontal bands of green, white and black adjoining the vertical band.", "idd": "+971" }, { "name": "United Kingdom", "cca2": "GB", "alt": "The flag of the United Kingdom — the Union Jack — has a blue field. It features the white-edged red cross of Saint George superimposed on the diagonal red cross of Saint Patrick which is superimposed on the diagonal white cross of Saint Andrew.", "idd": "+44" }, { "name": "United States", "cca2": "US", "alt": "The flag of the United States of America is composed of thirteen equal horizontal bands of red alternating with white. A blue rectangle, bearing fifty small five-pointed white stars arranged in nine rows where rows of six stars alternate with rows of five stars, is superimposed in the canton.", "idd": "+1" }, { "name": "United States Minor Outlying Islands", "cca2": "UM", "alt": "", "idd": "+268" }, { "name": "United States Virgin Islands", "cca2": "VI", "alt": "", "idd": "+1340" }, { "name": "Uruguay", "cca2": "UY", "alt": "The flag of Uruguay is composed of nine equal horizontal bands of white alternating with blue, with a white square superimposed in the canton. In the white square is a yellow sun bearing a human face — the Sun of May — from which sixteen rays extend. The sun's rays alternate between triangular and wavy.", "idd": "+598" }, { "name": "Uzbekistan", "cca2": "UZ", "alt": "The flag of Uzbekistan is composed of three equal horizontal bands of turquoise, white with red top and bottom edges, and green. On the hoist side of the turquoise band is a fly-side facing white crescent and twelve five-pointed white stars arranged just outside the crescent opening in three rows comprising three, four and five stars.", "idd": "+998" }, { "name": "Vanuatu", "cca2": "VU", "alt": "The flag of Vanuatu is composed of two equal horizontal bands of red and green, with a black isosceles triangle superimposed on the hoist side of the field. This triangle has its base on the hoist end, spans about two-fifth the width of the field and is enclosed on its sides by the arms of a thin black-edged yellow horizontally oriented Y-shaped band which extends along the boundary of the red and green bands to the fly end of the field. A yellow boar's tusk encircling two yellow crossed namele leaves is centered in the triangle.", "idd": "+678" }, { "name": "Vatican City", "cca2": "VA", "alt": "The flag of Vatican City is square shaped. It is composed of two equal vertical bands of yellow and white, with national coat of arms centered in the white band. The national coat of arms comprises the Papal Tiara superimposed on two crossed keys.", "idd": "+3" }, { "name": "Venezuela", "cca2": "VE", "alt": "The flag of Venezuela is composed of three equal horizontal bands of yellow, blue and red. At the center of the blue band are eight five-pointed white stars arranged in a horizontal arc.", "idd": "+58" }, { "name": "Vietnam", "cca2": "VN", "alt": "The flag of Vietnam features a large five-pointed yellow star on a red field.", "idd": "+84" }, { "name": "Wallis and Futuna", "cca2": "WF", "alt": "", "idd": "+681" }, { "name": "Western Sahara", "cca2": "EH", "alt": "", "idd": "+2" }, { "name": "Yemen", "cca2": "YE", "alt": "The flag of Yemen is composed of three equal horizontal bands of red, white and black.", "idd": "+967" }, { "name": "Zambia", "cca2": "ZM", "alt": "The flag of Zambia has a green field, on the fly side of which is a soaring orange African fish eagle above a rectangular area divided into three equal vertical bands of red, black and orange.", "idd": "+260" }, { "name": "Zimbabwe", "cca2": "ZW", "alt": "The flag of Zimbabwe is composed of seven equal horizontal bands of green, yellow, red, black, red, yellow and green, with a white isosceles triangle superimposed on the hoist side of the field. This triangle is edged in black, spans about one-fourth the width of the field and has its base on the hoist end. A yellow Zimbabwe bird superimposed on a five-pointed red star is centered in the triangle.", "idd": "+263" }, { "name": "Åland Islands", "cca2": "AX", "alt": "", "idd": "+35818" }]
